{
  "type": "FeatureCollection",
  "features": [
    {
      "type": "Feature",
      "properties": {
        "norad_id": 33844,
        "name": "COSMOS 2251 DEB",
        "group": "cosmos-2251-debris",
        "lat": 0.12347811697943702,
        "lon": -153.8575149484759,
        "alt_km": 806.1891501529553,
        "timestamp": "2025-12-27T07:26:25.613401+00:00",
        "meta_object_name": "COSMOS 2251 DEB",
        "meta_object_id": "1993-036CM",
        "meta_epoch": "2025-12-26T19:42:25.099776",
        "meta_mean_motion": 14.33744102,
        "meta_eccentricity": 0.00472615,
        "meta_inclination": 74.0664,
        "meta_ra_of_asc_node": 27.07,
        "meta_arg_of_pericenter": 44.5378,
        "meta_mean_anomaly": 132.437,
        "meta_ephemeris_type": 0,
        "meta_classification_type": "U",
        "meta_norad_cat_id": 33844,
        "meta_element_set_no": 999,
        "meta_rev_at_epoch": 87927,
        "meta_bstar": 0.00037332648,
        "meta_mean_motion_dot": 1.024e-05,
        "meta_mean_motion_ddot": 0,
        "tle_line1": "1 33844U 93036CM  25360.82112384  .00001024  00000+0  37333-3 0  9996",
        "tle_line2": "2 33844  74.0664  27.0700 0047261  44.5378 132.4370 14.33744102879270"
      },
      "geometry": {
        "type": "Point",
        "coordinates": [
          -153.8575149484759,
          0.12347811697943702
        ]
      }
    },
    {
      "type": "Feature",
      "properties": {
        "norad_id": 33848,
        "name": "COSMOS 2251 DEB",
        "group": "cosmos-2251-debris",
        "lat": -2.8298547115916732,
        "lon": 151.34216621835523,
        "alt_km": 775.96344765085,
        "timestamp": "2025-12-27T07:26:25.613411+00:00",
        "meta_object_name": "COSMOS 2251 DEB",
        "meta_object_id": "1993-036CR",
        "meta_epoch": "2025-12-26T22:25:39.816768",
        "meta_mean_motion": 14.44165457,
        "meta_eccentricity": 0.00420401,
        "meta_inclination": 74.0324,
        "meta_ra_of_asc_node": 331.2297,
        "meta_arg_of_pericenter": 23.0775,
        "meta_mean_anomaly": 7.9985,
        "meta_ephemeris_type": 0,
        "meta_classification_type": "U",
        "meta_norad_cat_id": 33848,
        "meta_element_set_no": 999,
        "meta_rev_at_epoch": 88036,
        "meta_bstar": 0.0014572321,
        "meta_mean_motion_dot": 5.029e-05,
        "meta_mean_motion_ddot": 0,
        "tle_line1": "1 33848U 93036CR  25360.93448862  .00005029  00000+0  14572-2 0  9993",
        "tle_line2": "2 33848  74.0324 331.2297 0042040  23.0775   7.9985 14.44165457880363"
      },
      "geometry": {
        "type": "Point",
        "coordinates": [
          151.34216621835523,
          -2.8298547115916732
        ]
      }
    },
    {
      "type": "Feature",
      "properties": {
        "norad_id": 33892,
        "name": "COSMOS 2251 DEB",
        "group": "cosmos-2251-debris",
        "lat": 70.95691345947614,
        "lon": -161.88382676885254,
        "alt_km": 726.3024682900932,
        "timestamp": "2025-12-27T07:26:25.613421+00:00",
        "meta_object_name": "COSMOS 2251 DEB",
        "meta_object_id": "1993-036CV",
        "meta_epoch": "2025-12-26T14:41:47.145408",
        "meta_mean_motion": 14.23382284,
        "meta_eccentricity": 0.0112013,
        "meta_inclination": 73.8026,
        "meta_ra_of_asc_node": 76.75,
        "meta_arg_of_pericenter": 105.2356,
        "meta_mean_anomaly": 21.3871,
        "meta_ephemeris_type": 0,
        "meta_classification_type": "U",
        "meta_norad_cat_id": 33892,
        "meta_element_set_no": 999,
        "meta_rev_at_epoch": 87152,
        "meta_bstar": 0.00061113,
        "meta_mean_motion_dot": 1.453e-05,
        "meta_mean_motion_ddot": 0,
        "tle_line1": "1 33892U 93036CV  25360.61235122  .00001453  00000+0  61113-3 0  9991",
        "tle_line2": "2 33892  73.8026  76.7500 0112013 105.2356  21.3871 14.23382284871520"
      },
      "geometry": {
        "type": "Point",
        "coordinates": [
          -161.88382676885254,
          70.95691345947614
        ]
      }
    },
    {
      "type": "Feature",
      "properties": {
        "norad_id": 33894,
        "name": "COSMOS 2251 DEB",
        "group": "cosmos-2251-debris",
        "lat": 59.237497725471,
        "lon": -4.1630748077096245,
        "alt_km": 1610.7746524849435,
        "timestamp": "2025-12-27T07:26:25.613431+00:00",
        "meta_object_name": "COSMOS 2251 DEB",
        "meta_object_id": "1993-036CX",
        "meta_epoch": "2025-12-26T07:28:06.751200",
        "meta_mean_motion": 13.21329669,
        "meta_eccentricity": 0.0578513,
        "meta_inclination": 73.7663,
        "meta_ra_of_asc_node": 328.0775,
        "meta_arg_of_pericenter": 245.6983,
        "meta_mean_anomaly": 108.2665,
        "meta_ephemeris_type": 0,
        "meta_classification_type": "U",
        "meta_norad_cat_id": 33894,
        "meta_element_set_no": 999,
        "meta_rev_at_epoch": 80887,
        "meta_bstar": 0.00063858,
        "meta_mean_motion_dot": 6.11e-06,
        "meta_mean_motion_ddot": 0,
        "tle_line1": "1 33894U 93036CX  25360.31118925  .00000611  00000+0  63858-3 0  9994",
        "tle_line2": "2 33894  73.7663 328.0775 0578513 245.6983 108.2665 13.21329669808870"
      },
      "geometry": {
        "type": "Point",
        "coordinates": [
          -4.1630748077096245,
          59.237497725471
        ]
      }
    },
    {
      "type": "Feature",
      "properties": {
        "norad_id": 33896,
        "name": "COSMOS 2251 DEB",
        "group": "cosmos-2251-debris",
        "lat": -53.11003204245531,
        "lon": 107.3902091133329,
        "alt_km": 743.3500100135789,
        "timestamp": "2025-12-27T07:26:25.613441+00:00",
        "meta_object_name": "COSMOS 2251 DEB",
        "meta_object_id": "1993-036CZ",
        "meta_epoch": "2025-12-26T18:54:44.191008",
        "meta_mean_motion": 14.19072892,
        "meta_eccentricity": 0.01272875,
        "meta_inclination": 73.7667,
        "meta_ra_of_asc_node": 131.1785,
        "meta_arg_of_pericenter": 304.6177,
        "meta_mean_anomaly": 213.3113,
        "meta_ephemeris_type": 0,
        "meta_classification_type": "U",
        "meta_norad_cat_id": 33896,
        "meta_element_set_no": 999,
        "meta_rev_at_epoch": 86939,
        "meta_bstar": 0.00071164023,
        "meta_mean_motion_dot": 1.584e-05,
        "meta_mean_motion_ddot": 0,
        "tle_line1": "1 33896U 93036CZ  25360.78801147  .00001584  00000+0  71164-3 0  9991",
        "tle_line2": "2 33896  73.7667 131.1785 0127287 304.6177 213.3113 14.19072892869390"
      },
      "geometry": {
        "type": "Point",
        "coordinates": [
          107.3902091133329,
          -53.11003204245531
        ]
      }
    },
    {
      "type": "Feature",
      "properties": {
        "norad_id": 33899,
        "name": "COSMOS 2251 DEB",
        "group": "cosmos-2251-debris",
        "lat": 12.60137069090354,
        "lon": 61.5606612586478,
        "alt_km": 698.5327707296592,
        "timestamp": "2025-12-27T07:26:25.613451+00:00",
        "meta_object_name": "COSMOS 2251 DEB",
        "meta_object_id": "1993-036DC",
        "meta_epoch": "2025-12-26T05:20:53.655072",
        "meta_mean_motion": 14.61299819,
        "meta_eccentricity": 0.0055925,
        "meta_inclination": 74.0532,
        "meta_ra_of_asc_node": 59.9717,
        "meta_arg_of_pericenter": 118.6354,
        "meta_mean_anomaly": 298.2749,
        "meta_ephemeris_type": 0,
        "meta_classification_type": "U",
        "meta_norad_cat_id": 33899,
        "meta_element_set_no": 999,
        "meta_rev_at_epoch": 89036,
        "meta_bstar": 0.00077649,
        "meta_mean_motion_dot": 3.891e-05,
        "meta_mean_motion_ddot": 0,
        "tle_line1": "1 33899U 93036DC  25360.22284323  .00003891  00000+0  77649-3 0  9991",
        "tle_line2": "2 33899  74.0532  59.9717 0055925 118.6354 298.2749 14.61299819890364"
      },
      "geometry": {
        "type": "Point",
        "coordinates": [
          61.5606612586478,
          12.60137069090354
        ]
      }
    },
    {
      "type": "Feature",
      "properties": {
        "norad_id": 33900,
        "name": "COSMOS 2251 DEB",
        "group": "cosmos-2251-debris",
        "lat": -70.5972454394211,
        "lon": -153.4479173981724,
        "alt_km": 729.9150684811912,
        "timestamp": "2025-12-27T07:26:25.613461+00:00",
        "meta_object_name": "COSMOS 2251 DEB",
        "meta_object_id": "1993-036DD",
        "meta_epoch": "2025-12-26T22:10:13.411776",
        "meta_mean_motion": 14.58399107,
        "meta_eccentricity": 0.00462953,
        "meta_inclination": 74.0196,
        "meta_ra_of_asc_node": 332.8367,
        "meta_arg_of_pericenter": 120.7287,
        "meta_mean_anomaly": 270.675,
        "meta_ephemeris_type": 0,
        "meta_classification_type": "U",
        "meta_norad_cat_id": 33900,
        "meta_element_set_no": 999,
        "meta_rev_at_epoch": 89243,
        "meta_bstar": 0.00051413526,
        "meta_mean_motion_dot": 2.389e-05,
        "meta_mean_motion_ddot": 0,
        "tle_line1": "1 33900U 93036DD  25360.92376634  .00002389  00000+0  51414-3 0  9991",
        "tle_line2": "2 33900  74.0196 332.8367 0046295 120.7287 270.6750 14.58399107892439"
      },
      "geometry": {
        "type": "Point",
        "coordinates": [
          -153.4479173981724,
          -70.5972454394211
        ]
      }
    }
  ]
}